{
    "links": {
        "self": "http://www.neowsapp.com/rest/v1/neo/3647195?api_key=iIulBulltgU6a56xZRHN4H3l9WmuAYTsLGpBGhQ2"
    },
    "id": "3647195",
    "neo_reference_id": "3647195",
    "name": "(2013 RX9)",
    "designation": "2013 RX9",
    "nasa_jpl_url": "http://ssd.jpl.nasa.gov/sbdb.cgi?sstr=3647195",
    "absolute_magnitude_h": 21.6,
    "estimated_diameter": {
        "kilometers": {
            "estimated_diameter_min": 0.1272198785,
            "estimated_diameter_max": 0.2844722965
        },
        "meters": {
            "estimated_diameter_min": 127.2198785394,
            "estimated_diameter_max": 284.4722965033
        },
        "miles": {
            "estimated_diameter_min": 0.0790507431,
            "estimated_diameter_max": 0.1767628354
        },
        "feet": {
            "estimated_diameter_min": 417.3880663071,
            "estimated_diameter_max": 933.3080892598
        }
    },
    "is_potentially_hazardous_asteroid": false,
    "close_approach_data": [
        {
            "close_approach_date": "2013-04-01",
            "close_approach_date_full": "2013-Apr-01 02:00",
            "epoch_date_close_approach": 1364781600000,
            "relative_velocity": {
                "kilometers_per_second": "14.706172829",
                "kilometers_per_hour": "52942.2221843546",
                "miles_per_hour": "32896.2380011619"
            },
            "miss_distance": {
                "astronomical": "0.2042875364",
                "lunar": "79.4678516596",
                "kilometers": "30560980.312987468",
                "miles": "18989712.6018163384"
            },
            "orbiting_body": "Earth"
        },
        {
            "close_approach_date": "2013-08-11",
            "close_approach_date_full": "2013-Aug-11 15:53",
            "epoch_date_close_approach": 1376236380000,
            "relative_velocity": {
                "kilometers_per_second": "8.1698442084",
                "kilometers_per_hour": "29411.4391501319",
                "miles_per_hour": "18275.1245097028"
            },
            "miss_distance": {
                "astronomical": "0.4589113131",
                "lunar": "178.5165007959",
                "kilometers": "68652154.958663097",
                "miles": "42658470.9917288586"
            },
            "orbiting_body": "Earth"
        },
        {
            "close_approach_date": "2177-08-03",
            "close_approach_date_full": "2177-Aug-03 05:27",
            "epoch_date_close_approach": 6550867620000,
            "relative_velocity": {
                "kilometers_per_second": "13.5407014175",
                "kilometers_per_hour": "48746.5251029518",
                "miles_per_hour": "30289.1950007758"
            },
            "miss_distance": {
                "astronomical": "0.2579058805",
                "lunar": "100.3253875145",
                "kilometers": "38582170.383274535",
                "miles": "23973848.994017183"
            },
            "orbiting_body": "Earth"
        }
    ],
    "orbital_data": {
        "orbit_id": "6",
        "orbit_determination_date": "2017-04-06 08:44:51",
        "first_observation_date": "2013-09-03",
        "last_observation_date": "2013-09-13",
        "data_arc_in_days": 10,
        "observations_used": 17,
        "orbit_uncertainty": "8",
        "minimum_orbit_intersection": ".16704",
        "jupiter_tisserand_invariant": "4.027",
        "epoch_osculation": "2456540.5",
        "eccentricity": ".4285132269224245",
        "semi_major_axis": "1.716957045787851",
        "inclination": "16.30250043742146",
        "ascending_node_longitude": "170.0767371713609",
        "orbital_period": "821.7459499162383",
        "perihelion_distance": ".9812182416101062",
        "perihelion_argument": "77.60905830476807",
        "aphelion_distance": "2.452695849965596",
        "perihelion_time": "2456427.293106803775",
        "mean_anomaly": "49.59498924794843",
        "mean_motion": ".4380916024431825",
        "equinox": "J2000",
        "orbit_class": {
            "orbit_class_type": "APO",
            "orbit_class_description": "Near-Earth asteroid orbits which cross the Earth’s orbit similar to that of 1862 Apollo",
            "orbit_class_range": "a (semi-major axis) > 1.0 AU; q (perihelion) < 1.017 AU"
        }
    },
    "is_sentry_object": false
}